MALLIGYONG-1            
1 58400U 23179A   24194.17767270  .00006594  00000+0  29698-3 0  9996
2 58400  97.4003  80.6023 0003712 101.1948 258.9706 15.21392103 35527
